{
  "type": "FeatureCollection",
  "features": [
    {
      "type": "Feature",
      "properties": {
        "norad_id": 32174,
        "name": "FENGYUN 1C DEB",
        "group": "fengyun-1c-debris",
        "lat": 39.83638553282411,
        "lon": 41.68097832521605,
        "alt_km": 926.6640929103769,
        "timestamp": "2025-12-12T18:57:44.415292+00:00",
        "meta_object_name": "FENGYUN 1C DEB",
        "meta_object_id": "1999-025CTU",
        "meta_epoch": "2025-12-08T09:45:57.975264",
        "meta_mean_motion": 14.17910967,
        "meta_eccentricity": 0.01499603,
        "meta_inclination": 98.6011,
        "meta_ra_of_asc_node": 44.6876,
        "meta_arg_of_pericenter": 258.4641,
        "meta_mean_anomaly": 99.9665,
        "meta_ephemeris_type": 0,
        "meta_classification_type": "U",
        "meta_norad_cat_id": 32174,
        "meta_element_set_no": 999,
        "meta_rev_at_epoch": 64044,
        "meta_bstar": 0.00054004697,
        "meta_mean_motion_dot": 1.19e-05,
        "meta_mean_motion_ddot": 0,
        "tle_line1": "1 32174U 99025CTU 25342.40692101  .00001190  00000+0  54005-3 0  9998",
        "tle_line2": "2 32174  98.6011  44.6876 0149960 258.4641  99.9665 14.17910967640445"
      },
      "geometry": {
        "type": "Point",
        "coordinates": [
          41.68097832521605,
          39.83638553282411
        ]
      }
    },
    {
      "type": "Feature",
      "properties": {
        "norad_id": 32175,
        "name": "FENGYUN 1C DEB",
        "group": "fengyun-1c-debris",
        "lat": -73.93780166420333,
        "lon": 8.00157726346792,
        "alt_km": 832.5829925779099,
        "timestamp": "2025-12-12T18:57:44.415302+00:00",
        "meta_object_name": "FENGYUN 1C DEB",
        "meta_object_id": "1999-025CTV",
        "meta_epoch": "2025-12-11T05:26:35.231424",
        "meta_mean_motion": 13.94782759,
        "meta_eccentricity": 0.01523951,
        "meta_inclination": 98.824,
        "meta_ra_of_asc_node": 333.8565,
        "meta_arg_of_pericenter": 327.1838,
        "meta_mean_anomaly": 31.993,
        "meta_ephemeris_type": 0,
        "meta_classification_type": "U",
        "meta_norad_cat_id": 32175,
        "meta_element_set_no": 999,
        "meta_rev_at_epoch": 59819,
        "meta_bstar": 0.0042359746,
        "meta_mean_motion_dot": 6.217e-05,
        "meta_mean_motion_ddot": 0,
        "tle_line1": "1 32175U 99025CTV 25345.22679666  .00006217  00000+0  42360-2 0  9998",
        "tle_line2": "2 32175  98.8240 333.8565 0152395 327.1838  31.9930 13.94782759598193"
      },
      "geometry": {
        "type": "Point",
        "coordinates": [
          8.00157726346792,
          -73.93780166420333
        ]
      }
    },
    {
      "type": "Feature",
      "properties": {
        "norad_id": 32177,
        "name": "FENGYUN 1C DEB",
        "group": "fengyun-1c-debris",
        "lat": 68.39235761558653,
        "lon": -27.618208516231796,
        "alt_km": 665.4079042301182,
        "timestamp": "2025-12-12T18:57:44.415312+00:00",
        "meta_object_name": "FENGYUN 1C DEB",
        "meta_object_id": "1999-025CTX",
        "meta_epoch": "2025-12-12T07:06:01.597248",
        "meta_mean_motion": 14.56212488,
        "meta_eccentricity": 0.00519583,
        "meta_inclination": 99.0456,
        "meta_ra_of_asc_node": 355.5622,
        "meta_arg_of_pericenter": 46.4975,
        "meta_mean_anomaly": 314.0521,
        "meta_ephemeris_type": 0,
        "meta_classification_type": "U",
        "meta_norad_cat_id": 32177,
        "meta_element_set_no": 999,
        "meta_rev_at_epoch": 71032,
        "meta_bstar": 0.002207509,
        "meta_mean_motion_dot": 9.895e-05,
        "meta_mean_motion_ddot": 0,
        "tle_line1": "1 32177U 99025CTX 25346.29585182  .00009895  00000+0  22075-2 0  9993",
        "tle_line2": "2 32177  99.0456 355.5622 0051958  46.4975 314.0521 14.56212488710326"
      },
      "geometry": {
        "type": "Point",
        "coordinates": [
          -27.618208516231796,
          68.39235761558653
        ]
      }
    },
    {
      "type": "Feature",
      "properties": {
        "norad_id": 32178,
        "name": "FENGYUN 1C DEB",
        "group": "fengyun-1c-debris",
        "lat": -78.03219162517807,
        "lon": 47.343606028584134,
        "alt_km": 775.829564525613,
        "timestamp": "2025-12-12T18:57:44.415322+00:00",
        "meta_object_name": "FENGYUN 1C DEB",
        "meta_object_id": "1999-025CTY",
        "meta_epoch": "2025-12-07T17:50:56.721120",
        "meta_mean_motion": 14.22943585,
        "meta_eccentricity": 0.00947686,
        "meta_inclination": 100.3035,
        "meta_ra_of_asc_node": 342.3342,
        "meta_arg_of_pericenter": 337.1658,
        "meta_mean_anomaly": 22.5314,
        "meta_ephemeris_type": 0,
        "meta_classification_type": "U",
        "meta_norad_cat_id": 32178,
        "meta_element_set_no": 999,
        "meta_rev_at_epoch": 63932,
        "meta_bstar": 0.0022460255,
        "meta_mean_motion_dot": 5.238e-05,
        "meta_mean_motion_ddot": 0,
        "tle_line1": "1 32178U 99025CTY 25341.74371205  .00005238  00000+0  22460-2 0  9993",
        "tle_line2": "2 32178 100.3035 342.3342 0094768 337.1658  22.5314 14.22943585639326"
      },
      "geometry": {
        "type": "Point",
        "coordinates": [
          47.343606028584134,
          -78.03219162517807
        ]
      }
    },
    {
      "type": "Feature",
      "properties": {
        "norad_id": 32179,
        "name": "FENGYUN 1C DEB",
        "group": "fengyun-1c-debris",
        "lat": -67.35325227924527,
        "lon": 57.70531443432153,
        "alt_km": 907.2631726233321,
        "timestamp": "2025-12-12T18:57:44.415332+00:00",
        "meta_object_name": "FENGYUN 1C DEB",
        "meta_object_id": "1999-025CTZ",
        "meta_epoch": "2025-12-11T09:09:52.384320",
        "meta_mean_motion": 14.03679144,
        "meta_eccentricity": 0.01452559,
        "meta_inclination": 98.9099,
        "meta_ra_of_asc_node": 34.2393,
        "meta_arg_of_pericenter": 193.6931,
        "meta_mean_anomaly": 183.3562,
        "meta_ephemeris_type": 0,
        "meta_classification_type": "U",
        "meta_norad_cat_id": 32179,
        "meta_element_set_no": 999,
        "meta_rev_at_epoch": 65709,
        "meta_bstar": 0.00021188439,
        "meta_mean_motion_dot": 3.22e-06,
        "meta_mean_motion_ddot": 0,
        "tle_line1": "1 32179U 99025CTZ 25345.38185630  .00000322  00000+0  21188-3 0  9999",
        "tle_line2": "2 32179  98.9099  34.2393 0145255 193.6931 183.3562 14.03679144657090"
      },
      "geometry": {
        "type": "Point",
        "coordinates": [
          57.70531443432153,
          -67.35325227924527
        ]
      }
    },
    {
      "type": "Feature",
      "properties": {
        "norad_id": 32180,
        "name": "FENGYUN 1C DEB",
        "group": "fengyun-1c-debris",
        "lat": -26.578641269209587,
        "lon": -157.9364318816141,
        "alt_km": 861.4255116410268,
        "timestamp": "2025-12-12T18:57:44.415342+00:00",
        "meta_object_name": "FENGYUN 1C DEB",
        "meta_object_id": "1999-025CUA",
        "meta_epoch": "2025-12-11T09:04:15.508128",
        "meta_mean_motion": 13.82327177,
        "meta_eccentricity": 0.01363004,
        "meta_inclination": 99.5861,
        "meta_ra_of_asc_node": 25.4776,
        "meta_arg_of_pericenter": 214.0644,
        "meta_mean_anomaly": 169.2809,
        "meta_ephemeris_type": 0,
        "meta_classification_type": "U",
        "meta_norad_cat_id": 32180,
        "meta_element_set_no": 999,
        "meta_rev_at_epoch": 94249,
        "meta_bstar": 0.00016381188,
        "meta_mean_motion_dot": 1.43e-06,
        "meta_mean_motion_ddot": 0,
        "tle_line1": "1 32180U 99025CUA 25345.37795727  .00000143  00000+0  16381-3 0  9994",
        "tle_line2": "2 32180  99.5861  25.4776 0136300 214.0644 169.2809 13.82327177942493"
      },
      "geometry": {
        "type": "Point",
        "coordinates": [
          -157.9364318816141,
          -26.578641269209587
        ]
      }
    },
    {
      "type": "Feature",
      "properties": {
        "norad_id": 32181,
        "name": "FENGYUN 1C DEB",
        "group": "fengyun-1c-debris",
        "lat": 30.912616235936376,
        "lon": -83.68300228585427,
        "alt_km": 680.4904741956852,
        "timestamp": "2025-12-12T18:57:44.415352+00:00",
        "meta_object_name": "FENGYUN 1C DEB",
        "meta_object_id": "1999-025CUB",
        "meta_epoch": "2025-12-11T12:40:18.432768",
        "meta_mean_motion": 14.56014593,
        "meta_eccentricity": 0.00737728,
        "meta_inclination": 99.4727,
        "meta_ra_of_asc_node": 89.1481,
        "meta_arg_of_pericenter": 89.0035,
        "meta_mean_anomaly": 286.9682,
        "meta_ephemeris_type": 0,
        "meta_classification_type": "U",
        "meta_norad_cat_id": 32181,
        "meta_element_set_no": 999,
        "meta_rev_at_epoch": 96703,
        "meta_bstar": 0.0012142137,
        "meta_mean_motion_dot": 5.488e-05,
        "meta_mean_motion_ddot": 0,
        "tle_line1": "1 32181U 99025CUB 25345.52799112  .00005488  00000+0  12142-2 0  9991",
        "tle_line2": "2 32181  99.4727  89.1481 0073772  89.0035 286.9682 14.56014593967031"
      },
      "geometry": {
        "type": "Point",
        "coordinates": [
          -83.68300228585427,
          30.912616235936376
        ]
      }
    }
  ]
}